LEMUR-2-ROBMOORE        
1 42754U 17019D   17255.79347298  .00003698  00000-0  14743-3 0  9997
2 42754  51.6405 340.6478 0010369 299.3352  60.6591 15.27681518 14667
LEMUR-2-SPIROVISION     
1 42755U 17019E   17256.18279936  .00006288  00000-0  24053-3 0  9998
2 42755  51.6401 338.7459 0010437 300.4718  59.5230 15.27820656 14617
UCLSAT                  
1 42765U 17036A   17255.86119874  .00002416  00000-0  11221-3 0  9998
2 42765  97.4414 314.6620 0011206 335.3806  24.6893 15.20929327 13135
LITUANICASAT-2          
1 42768U 17036D   17256.11800066  .00002988  00000-0  14190-3 0  9992
2 42768  97.4382 314.7753 0015548 320.3306  39.6787 15.19914605 12455
LEMUR-2-SHAINAJOHL      
1 42771U 17036G   17255.84628490  .00003216  00000-0  15204-3 0  9996
2 42771  97.4416 314.5306 0014168 321.1089  38.9126 15.20027532 12357
LEMUR-2-XUENITERENCE    
1 42772U 17036H   17255.90930243  .00003009  00000-0  14235-3 0  9999
2 42772  97.4415 314.5985 0013824 320.6576  39.3653 15.20064660 12367
LEMUR-2-LUCYBRYCE       
1 42773U 17036J   17255.90600523  .00003684  00000-0  17303-3 0  9993
2 42773  97.4416 314.6034 0013529 320.0437  39.9801 15.20170077 12368
LEMUR-2-KUNGFOO         
1 42774U 17036K   17255.90580138  .00003129  00000-0  14766-3 0  9997
2 42774  97.4418 314.6064 0013570 320.2595  39.7645 15.20127839 12358
AALTO-1                 
1 42775U 17036L   17255.83659905  .00001815  00000-0  87035-4 0  9999
2 42775  97.4415 314.5443 0013254 319.7368  40.2884 15.20110708 12355
URSA MAIOR              
1 42776U 17036M   17255.90037557  .00001823  00000-0  87338-4 0  9996
2 42776  97.4417 314.6144 0013109 319.8432  40.1833 15.20152522 12363
COMPASS 2               
1 42777U 17036N   17256.21350226  .00003872  00000-0  17983-3 0  9997
2 42777  97.4427 314.9702 0012199 323.5922  36.4483 15.20546560 12405
LEMUR-2-LYNSEY-SYMO     
1 42779U 17036Q   17255.87353568  .00003607  00000-0  16664-3 0  9993
2 42779  97.4421 314.6509 0011858 332.2037  27.8564 15.20773684 12344
LEMUR-2-LISASAURUS      
1 42780U 17036R   17255.87289208  .00002778  00000-0  12918-3 0  9990
2 42780  97.4418 314.6487 0011832 332.2671  27.7932 15.20741947 12359
LEMUR-2-SAM-AMELIA      
1 42781U 17036S   17255.87089182  .00003321  00000-0  15352-3 0  9990
2 42781  97.4417 314.6504 0011667 332.7240  27.3381 15.20810060 12348
LEMUR-2-MCPEAKE         
1 42782U 17036T   17255.86945041  .00003477  00000-0  16042-3 0  9994
2 42782  97.4419 314.6543 0011525 332.3729  27.6892 15.20846979 12343
DIAMOND RED             
1 42783U 17036U   17255.80435717  .00002714  00000-0  12630-3 0  9995
2 42783  97.4418 314.5864 0011844 334.7611  25.3044 15.20739484 12344
PEGASUS                 
1 42784U 17036V   17256.13152403  .00002075  00000-0  97201-4 0  9999
2 42784  97.4387 314.9120 0011728 333.6697  26.4088 15.20786601 12390
DIAMOND GREEN           
1 42785U 17036W   17255.73714955  .00001149  00000-0  55320-4 0  9998
2 42785  97.4421 314.5254 0011718 335.4768  24.5909 15.20716183 12403
DIAMOND BLUE            
1 42786U 17036X   17255.86669664  .00001975  00000-0  92766-4 0  9991
2 42786  97.4419 314.6572 0011606 335.5169  24.5514 15.20747101 12425
NUDTSAT                 
1 42787U 17036Y   17256.12449534  .00003498  00000-0  16073-3 0  9992
2 42787  97.4418 314.9236 0011323 334.3454  25.7219 15.20986892 12231
SUCHAI                  
1 42788U 17036Z   17255.86301559  .00002799  00000-0  12952-3 0  9992
2 42788  97.4416 314.6608 0011368 335.3276  24.7414 15.20911195 12423
SKCUBE                  
1 42789U 17036AA  17255.86095063  .00002545  00000-0  11800-3 0  9993
2 42789  97.4415 314.6625 0011185 335.4055  24.6646 15.20939227 12348
VZLUSAT-1               
1 42790U 17036AB  17255.92237691  .00002835  00000-0  13068-3 0  9997
2 42790  97.4414 314.7308 0010898 335.8017  24.2706 15.21044361 12351
ROBUSTA-1B              
1 42792U 17036AD  17255.92012521  .00002733  00000-0  12599-3 0  9997
2 42792  97.4413 314.7333 0010776 336.8301  23.2447 15.21068732 12362
CICERO 6                
1 42793U 17036AE  17256.17341143  .00002298  00000-0  10605-3 0  9993
2 42793  97.4413 315.0054 0009965 337.5336  22.5462 15.21203358 12477
D-SAT                   
1 42794U 17036AF  17255.84085590  .00001696  00000-0  78995-4 0  9996
2 42794  97.4409 314.6830 0009029 336.6875  23.3950 15.21251739 12342
TOKI                    
1 42820U 98067MU  17255.67913336  .00017129  00000-0  24087-3 0  9998
2 42820  51.6399 321.4342 0001918 215.9450 144.1413 15.56785232 10491
GHANASAT-1              
1 42821U 98067MV  17255.61721728  .00016528  00000-0  23342-3 0  9990
2 42821  51.6400 321.7710 0002006 219.3309 140.7537 15.56698117 10468
MAZAALAI (NUMSAT-1)     
1 42822U 98067MW  17256.19576724  .00024244  00000-0  33856-3 0  9994
2 42822  51.6399 318.8849 0002003 225.5824 134.5004 15.56725313 10531
BRAC ONNESHA            
1 42823U 98067MX  17255.55552524  .00016938  00000-0  23918-3 0  9995
2 42823  51.6401 322.1109 0005598 237.9284 122.1165 15.56671215 10455
NIGERIAEDUSAT-1         
1 42824U 98067MY  17255.55799911  .00016427  00000-0  23278-3 0  9991
2 42824  51.6405 322.1278 0005475 239.3752 120.6700 15.56603249 10424
LEMUR-2-GREENBERG       
1 42837U 17042N   17255.80168775  .00001363  00000-0  14292-3 0  9994
2 42837  97.6091 163.3616 0014658  45.0459 315.1946 14.91045319  9011
LEMUR-2-ANDIS           
1 42838U 17042P   17256.20340207  .00001149  00000-0  12122-3 0  9994
2 42838  97.6090 163.7506 0014698  44.1649 316.0741 14.91073344  9076
LEMUR-2-MONSON          
1 42839U 17042Q   17255.93089277  .00000759  00000-0  81791-4 0  9996
2 42839  97.6090 163.4966 0014368  44.1988 316.0376 14.91156136  9035
LEMUR-2-FURIAUS         
1 42840U 17042R   17255.92963130  .00001162  00000-0  12215-3 0  9999
2 42840  97.6089 163.4977 0014514  44.3076 315.9302 14.91201282  9029
LEMUR-2-PETERG          
1 42841U 17042S   17255.92423496  .00001136  00000-0  11919-3 0  9997
2 42841  97.6090 163.5052 0014154  43.0954 317.1370 14.91330432  9038
LEMUR-2-DEMBITZ         
1 42842U 17042T   17256.12463961  .00001152  00000-0  12069-3 0  9997
2 42842  97.6088 163.6995 0014157  42.9913 317.2409 14.91354452  9064
LEMUR-2-ZACHARY         
1 42845U 17042W   17255.91415733  .00000920  00000-0  96995-4 0  9993
2 42845  97.6038 163.4755 0014553  48.1834 312.0625 14.91571164  9024
FLOCK 2K-03             
1 42850U 17042AB  17255.53967480  .00012333  00000-0  38736-3 0  9997
2 42850  96.9961 161.2933 0013800  45.7166 314.5207 15.33041361  9038
FLOCK 2K-04             
1 42851U 17042AC  17255.73712234  .00011107  00000-0  34976-3 0  9995
2 42851  96.9965 161.4782 0013537  45.7462 314.4889 15.32985504  9066
FLOCK 2K-01             
1 42852U 17042AD  17255.73593941  .00012244  00000-0  38511-3 0  9990
2 42852  96.9963 161.4794 0013416  45.5400 314.6938 15.33001341  9060
FLOCK 2K-02             
1 42853U 17042AE  17255.80155331  .00003329  00000-0  10725-3 0  9997
2 42853  96.9971 161.5431 0013420  43.9689 316.2619 15.32756521  9076
FLOCK 2K-47             
1 42854U 17042AF  17255.73390029  .00013325  00000-0  41801-3 0  9991
2 42854  96.9962 161.4801 0013266  44.6458 315.5851 15.33067895  9066
FLOCK 2K-48             
1 42855U 17042AG  17255.73376116  .00013264  00000-0  41636-3 0  9991
2 42855  96.9964 161.4831 0013255  44.4923 315.7382 15.33048974  9063
FLOCK 2K-45             
1 42856U 17042AH  17255.73223827  .00012653  00000-0  39674-3 0  9992
2 42856  96.9964 161.4835 0013253  43.7218 316.5072 15.33095493  9068
FLOCK 2K-24             
1 42857U 17042AJ  17255.73152028  .00011886  00000-0  37254-3 0  9996
2 42857  96.9964 161.4833 0013079  43.3201 316.9068 15.33124604  9067
FLOCK 2K-46             
1 42858U 17042AK  17255.73118586  .00008115  00000-0  25504-3 0  9994
2 42858  96.9962 161.4869 0013266  43.5842 316.6446 15.33138545  9062
FLOCK 2K-23             
1 42859U 17042AL  17255.79559291  .00005841  00000-0  18399-3 0  9990
2 42859  96.9965 161.5488 0013320  43.1509 317.0776 15.33183068  9073
FLOCK 2K-21             
1 42860U 17042AM  17255.92489906  .00013369  00000-0  41702-3 0  9990
2 42860  96.9963 161.6738 0013219  42.3119 317.9142 15.33248502  9090
FLOCK 2K-22             
1 42861U 17042AN  17256.18664197  .00005556  00000-0  17651-3 0  9992
2 42861  96.9968 161.9212 0013277  40.3804 319.8422 15.32934768  9131
FLOCK 2K-07             
1 42862U 17042AP  17255.79244567  .00010662  00000-0  33388-3 0  9993
2 42862  96.9965 161.5530 0013407  41.5108 318.7151 15.33177882  9081
FLOCK 2K-08             
1 42863U 17042AQ  17255.79099279  .00009417  00000-0  29491-3 0  9998
2 42863  96.9963 161.5525 0013430  41.5331 318.6931 15.33207050  9073
FLOCK 2K-05             
1 42864U 17042AR  17255.79078454  .00008674  00000-0  27200-3 0  9991
2 42864  96.9965 161.5548 0013437  41.3577 318.8682 15.33188352  9076
FLOCK 2K-40             
1 42865U 17042AS  17255.72429524  .00013201  00000-0  41105-3 0  9995
2 42865  96.9963 161.4935 0013456  42.0268 318.2005 15.33304987  9066
FLOCK 2K-39             
1 42866U 17042AT  17255.72448953  .00013557  00000-0  42275-3 0  9996
2 42866  96.9964 161.4945 0013444  42.1597 318.0678 15.33253346  9068
FLOCK 2K-37             
1 42867U 17042AU  17255.72366241  .00010838  00000-0  33737-3 0  9998
2 42867  96.9960 161.4949 0013505  42.3673 317.8611 15.33362543  9068
FLOCK 2K-38             
1 42868U 17042AV  17255.78746814  .00011482  00000-0  35648-3 0  9992
2 42868  96.9961 161.5585 0013583  42.0958 318.1327 15.33430227  9070
FLOCK 2K-31             
1 42869U 17042AW  17255.72068805  .00012888  00000-0  39953-3 0  9998
2 42869  96.9962 161.4980 0013585  41.5468 318.6805 15.33449411  9062
FLOCK 2K-32             
1 42870U 17042AX  17255.78546295  .00005794  00000-0  18096-3 0  9993
2 42870  96.9963 161.5610 0013683  41.9806 318.2484 15.33452299  9073
